{
  "type": "FeatureCollection",
  "features": [
    {
      "type": "Feature",
      "properties": {
        "norad_id": 30232,
        "name": "FENGYUN 1C DEB",
        "group": "fengyun-1c-debris",
        "lat": -39.32734695307049,
        "lon": -168.04320896743286,
        "alt_km": 609.7923410454423,
        "timestamp": "2025-12-10T16:57:11.911518+00:00",
        "meta_object_name": "FENGYUN 1C DEB",
        "meta_object_id": "1999-025WR",
        "meta_epoch": "2025-12-10T12:28:36.120000",
        "meta_mean_motion": 14.6356144,
        "meta_eccentricity": 0.0136165,
        "meta_inclination": 98.6936,
        "meta_ra_of_asc_node": 184.5587,
        "meta_arg_of_pericenter": 356.6624,
        "meta_mean_anomaly": 62.2748,
        "meta_ephemeris_type": 0,
        "meta_classification_type": "U",
        "meta_norad_cat_id": 30232,
        "meta_element_set_no": 999,
        "meta_rev_at_epoch": 99719,
        "meta_bstar": 0.0009679,
        "meta_mean_motion_dot": 5.689e-05,
        "meta_mean_motion_ddot": 0,
        "tle_line1": "1 30232U 99025WR  25344.51986250  .00005689  00000+0  96790-3 0  9990",
        "tle_line2": "2 30232  98.6936 184.5587 0136165 356.6624  62.2748 14.63561440997193"
      },
      "geometry": {
        "type": "Point",
        "coordinates": [
          -168.04320896743286,
          -39.32734695307049
        ]
      }
    },
    {
      "type": "Feature",
      "properties": {
        "norad_id": 30234,
        "name": "FENGYUN 1C DEB",
        "group": "fengyun-1c-debris",
        "lat": -25.23362930806465,
        "lon": 171.43779918587086,
        "alt_km": 868.725649825491,
        "timestamp": "2025-12-10T16:57:11.911530+00:00",
        "meta_object_name": "FENGYUN 1C DEB",
        "meta_object_id": "1999-025WT",
        "meta_epoch": "2025-12-10T11:40:31.269792",
        "meta_mean_motion": 14.16859537,
        "meta_eccentricity": 0.0067058,
        "meta_inclination": 98.6338,
        "meta_ra_of_asc_node": 355.3305,
        "meta_arg_of_pericenter": 81.5651,
        "meta_mean_anomaly": 82.1464,
        "meta_ephemeris_type": 0,
        "meta_classification_type": "U",
        "meta_norad_cat_id": 30234,
        "meta_element_set_no": 999,
        "meta_rev_at_epoch": 97424,
        "meta_bstar": 0.00046551,
        "meta_mean_motion_dot": 9.12e-06,
        "meta_mean_motion_ddot": 0,
        "tle_line1": "1 30234U 99025WT  25344.48647303  .00000912  00000+0  46551-3 0  9995",
        "tle_line2": "2 30234  98.6338 355.3305 0067058  81.5651  82.1464 14.16859537974247"
      },
      "geometry": {
        "type": "Point",
        "coordinates": [
          171.43779918587086,
          -25.23362930806465
        ]
      }
    },
    {
      "type": "Feature",
      "properties": {
        "norad_id": 30235,
        "name": "FENGYUN 1C DEB",
        "group": "fengyun-1c-debris",
        "lat": -43.708609868512035,
        "lon": 174.4674312329381,
        "alt_km": 765.68295187483,
        "timestamp": "2025-12-10T16:57:11.911540+00:00",
        "meta_object_name": "FENGYUN 1C DEB",
        "meta_object_id": "1999-025WU",
        "meta_epoch": "2025-12-10T00:40:25.032864",
        "meta_mean_motion": 14.08772398,
        "meta_eccentricity": 0.01533179,
        "meta_inclination": 98.7498,
        "meta_ra_of_asc_node": 2.2746,
        "meta_arg_of_pericenter": 246.242,
        "meta_mean_anomaly": 140.3805,
        "meta_ephemeris_type": 0,
        "meta_classification_type": "U",
        "meta_norad_cat_id": 30235,
        "meta_element_set_no": 999,
        "meta_rev_at_epoch": 96855,
        "meta_bstar": 0.00045981802,
        "meta_mean_motion_dot": 8.4e-06,
        "meta_mean_motion_ddot": 0,
        "tle_line1": "1 30235U 99025WU  25344.02806751  .00000840  00000+0  45982-3 0  9997",
        "tle_line2": "2 30235  98.7498   2.2746 0153317 246.2420 140.3805 14.08772398968554"
      },
      "geometry": {
        "type": "Point",
        "coordinates": [
          174.4674312329381,
          -43.708609868512035
        ]
      }
    },
    {
      "type": "Feature",
      "properties": {
        "norad_id": 30237,
        "name": "FENGYUN 1C DEB",
        "group": "fengyun-1c-debris",
        "lat": -73.95758144164454,
        "lon": 120.095764512196,
        "alt_km": 754.3242819258339,
        "timestamp": "2025-12-10T16:57:11.911551+00:00",
        "meta_object_name": "FENGYUN 1C DEB",
        "meta_object_id": "1999-025WW",
        "meta_epoch": "2025-12-10T05:46:45.653088",
        "meta_mean_motion": 14.40828706,
        "meta_eccentricity": 0.0013771,
        "meta_inclination": 98.8255,
        "meta_ra_of_asc_node": 86.9107,
        "meta_arg_of_pericenter": 312.7749,
        "meta_mean_anomaly": 77.1847,
        "meta_ephemeris_type": 0,
        "meta_classification_type": "U",
        "meta_norad_cat_id": 30237,
        "meta_element_set_no": 999,
        "meta_rev_at_epoch": 97662,
        "meta_bstar": 0.0037382,
        "meta_mean_motion_dot": 0.0001196,
        "meta_mean_motion_ddot": 0,
        "tle_line1": "1 30237U 99025WW  25344.24080617  .00011960  00000+0  37382-2 0  9997",
        "tle_line2": "2 30237  98.8255  86.9107 0013771 312.7749  77.1847 14.40828706976621"
      },
      "geometry": {
        "type": "Point",
        "coordinates": [
          120.095764512196,
          -73.95758144164454
        ]
      }
    },
    {
      "type": "Feature",
      "properties": {
        "norad_id": 30239,
        "name": "FENGYUN 1C DEB",
        "group": "fengyun-1c-debris",
        "lat": -12.510221964270514,
        "lon": -48.28916236266353,
        "alt_km": 2996.966553645182,
        "timestamp": "2025-12-10T16:57:11.911561+00:00",
        "meta_object_name": "FENGYUN 1C DEB",
        "meta_object_id": "1999-025WY",
        "meta_epoch": "2025-12-10T09:34:48.338112",
        "meta_mean_motion": 11.38085097,
        "meta_eccentricity": 0.1346414,
        "meta_inclination": 99.5841,
        "meta_ra_of_asc_node": 133.6532,
        "meta_arg_of_pericenter": 34.675,
        "meta_mean_anomaly": 333.5026,
        "meta_ephemeris_type": 0,
        "meta_classification_type": "U",
        "meta_norad_cat_id": 30239,
        "meta_element_set_no": 999,
        "meta_rev_at_epoch": 54508,
        "meta_bstar": 0.018967,
        "meta_mean_motion_dot": 6.293e-05,
        "meta_mean_motion_ddot": 0,
        "tle_line1": "1 30239U 99025WY  25344.39917058  .00006293  00000+0  18967-1 0  9993",
        "tle_line2": "2 30239  99.5841 133.6532 1346414  34.6750 333.5026 11.38085097545082"
      },
      "geometry": {
        "type": "Point",
        "coordinates": [
          -48.28916236266353,
          -12.510221964270514
        ]
      }
    },
    {
      "type": "Feature",
      "properties": {
        "norad_id": 30241,
        "name": "FENGYUN 1C DEB",
        "group": "fengyun-1c-debris",
        "lat": 77.70153020385098,
        "lon": 69.89414059922083,
        "alt_km": 747.6975563076512,
        "timestamp": "2025-12-10T16:57:11.911571+00:00",
        "meta_object_name": "FENGYUN 1C DEB",
        "meta_object_id": "1999-025XA",
        "meta_epoch": "2025-12-10T08:18:32.894784",
        "meta_mean_motion": 14.0954254,
        "meta_eccentricity": 0.0146819,
        "meta_inclination": 99.1484,
        "meta_ra_of_asc_node": 117.1881,
        "meta_arg_of_pericenter": 87.7535,
        "meta_mean_anomaly": 327.5151,
        "meta_ephemeris_type": 0,
        "meta_classification_type": "U",
        "meta_norad_cat_id": 30241,
        "meta_element_set_no": 999,
        "meta_rev_at_epoch": 96878,
        "meta_bstar": 0.0003484,
        "meta_mean_motion_dot": 6.29e-06,
        "meta_mean_motion_ddot": 0,
        "tle_line1": "1 30241U 99025XA  25344.34621406  .00000629  00000+0  34840-3 0  9997",
        "tle_line2": "2 30241  99.1484 117.1881 0146819  87.7535 327.5151 14.09542540968784"
      },
      "geometry": {
        "type": "Point",
        "coordinates": [
          69.89414059922083,
          77.70153020385098
        ]
      }
    },
    {
      "type": "Feature",
      "properties": {
        "norad_id": 30242,
        "name": "FENGYUN 1C DEB",
        "group": "fengyun-1c-debris",
        "lat": -41.80205647760734,
        "lon": 26.776915440673534,
        "alt_km": 841.6650405814062,
        "timestamp": "2025-12-10T16:57:11.911581+00:00",
        "meta_object_name": "FENGYUN 1C DEB",
        "meta_object_id": "1999-025XB",
        "meta_epoch": "2025-12-10T08:44:40.245216",
        "meta_mean_motion": 14.17629455,
        "meta_eccentricity": 0.0011166,
        "meta_inclination": 98.6835,
        "meta_ra_of_asc_node": 18.5886,
        "meta_arg_of_pericenter": 61.2305,
        "meta_mean_anomaly": 312.0142,
        "meta_ephemeris_type": 0,
        "meta_classification_type": "U",
        "meta_norad_cat_id": 30242,
        "meta_element_set_no": 999,
        "meta_rev_at_epoch": 97393,
        "meta_bstar": 0.00084846,
        "meta_mean_motion_dot": 1.683e-05,
        "meta_mean_motion_ddot": 0,
        "tle_line1": "1 30242U 99025XB  25344.36435469  .00001683  00000+0  84846-3 0  9994",
        "tle_line2": "2 30242  98.6835  18.5886 0011166  61.2305 312.0142 14.17629455973938"
      },
      "geometry": {
        "type": "Point",
        "coordinates": [
          26.776915440673534,
          -41.80205647760734
        ]
      }
    }
  ]
}